[{"OBJECT_NAME":"GEOSCAN 5 (RS92S5)","OBJECT_ID":"2025-155R","EPOCH":"2026-03-09T22:01:07.273920","MEAN_MOTION":15.30265233,"ECCENTRICITY":0.00070849,"INCLINATION":97.4462,"RA_OF_ASC_NODE":37.7456,"ARG_OF_PERICENTER":154.5846,"MEAN_ANOMALY":205.5745,"EPHEMERIS_TYPE":0,"CLASSIFICATION_TYPE":"U","NORAD_CAT_ID":64891,"ELEMENT_SET_NO":999,"REV_AT_EPOCH":6562,"BSTAR":0.00068639307,"MEAN_MOTION_DOT":0.00020065,"MEAN_MOTION_DDOT":0},{"OBJECT_NAME":"STARLINK-36100","OBJECT_ID":"2025-286T","EPOCH":"2026-03-09T23:32:57.232608","MEAN_MOTION":15.30206221,"ECCENTRICITY":0.00014631,"INCLINATION":53.1607,"RA_OF_ASC_NODE":356.935,"ARG_OF_PERICENTER":120.9525,"MEAN_ANOMALY":239.1619,"EPHEMERIS_TYPE":0,"CLASSIFICATION_TYPE":"U","NORAD_CAT_ID":66942,"ELEMENT_SET_NO":999,"REV_AT_EPOCH":1539,"BSTAR":0.00087551696,"MEAN_MOTION_DOT":0.00025666,"MEAN_MOTION_DDOT":0}]
